[{"OBJECT_NAME":"STARLINK-2378","OBJECT_ID":"2021-021BJ","EPOCH":"2026-03-09T17:01:08.083776","MEAN_MOTION":15.30179565,"ECCENTRICITY":0.00011967,"INCLINATION":53.1585,"RA_OF_ASC_NODE":255.2679,"ARG_OF_PERICENTER":75.6994,"MEAN_ANOMALY":284.4139,"EPHEMERIS_TYPE":0,"CLASSIFICATION_TYPE":"U","NORAD_CAT_ID":47916,"ELEMENT_SET_NO":999,"REV_AT_EPOCH":27641,"BSTAR":-7.2825764e-5,"MEAN_MOTION_DOT":-2.514e-5,"MEAN_MOTION_DDOT":0},{"OBJECT_NAME":"TEVEL2-9","OBJECT_ID":"2025-052AD","EPOCH":"2026-03-09T16:51:18.321696","MEAN_MOTION":15.28633834,"ECCENTRICITY":0.000799,"INCLINATION":97.4057,"RA_OF_ASC_NODE":324.3929,"ARG_OF_PERICENTER":124.2475,"MEAN_ANOMALY":235.9522,"EPHEMERIS_TYPE":0,"CLASSIFICATION_TYPE":"U","NORAD_CAT_ID":63237,"ELEMENT_SET_NO":999,"REV_AT_EPOCH":5481,"BSTAR":0.00067240159,"MEAN_MOTION_DOT":0.00018694,"MEAN_MOTION_DDOT":0}]
