STARLINK-2378           
1 47916U 21021BJ  26068.70912133 -.00002514  00000+0 -72826-4 0  9993
2 47916  53.1585 255.2679 0001197  75.6994 284.4139 15.30179565276413
TEVEL2-9                
1 63237U 25052AD  26068.70229538  .00018694  00000+0  67240-3 0  9992
2 63237  97.4057 324.3929 0007990 124.2475 235.9522 15.28633834 54816
